IRIDIUM 26              
1 24903U 97043A   25351.85073714  .00000366  00000+0  11614-3 0  9992
2 24903  86.3955  33.4146 0002185  99.0252 261.1193 14.37331686483123
IRIDIUM 22              
1 24907U 97043E   25351.86368906  .00000298  00000+0  95640-4 0  9993
2 24907  86.3959  37.1068 0002321  95.1815 264.9647 14.36125101483137
DUMMY MASS 1            
1 24925U 97048A   25351.65027364  .00000352  00000+0  36039-4 0  9993
2 24925  86.3343  50.4342 0005584 195.4648 164.6408 14.87187202532399
DUMMY MASS 2            
1 24926U 97048B   25351.71036661  .00000346  00000+0  35568-4 0  9990
2 24926  86.3342  52.0482 0005867 211.5478 148.5396 14.86937650532179
IRIDIUM 29              
1 24944U 97051A   25351.75023072  .00000341  00000+0  10902-3 0  9999
2 24944  86.3952  66.8399 0002270  91.6507 268.4950 14.36666930479624
IRIDIUM 33              
1 24946U 97051C   25351.72696519  .00000289  00000+0  94617-4 0  9997
2 24946  86.3868  66.1284 0007632 183.1964 176.9185 14.35040933479068
IRIDIUM 28              
1 24948U 97051E   25351.81691965  .00000335  00000+0  10527-3 0  9998
2 24948  86.3955  64.2225 0002091 109.8933 250.2490 14.37566850480224
IRIDIUM 36              
1 24967U 97056C   25351.75163799  .00000357  00000+0  11216-3 0  9996
2 24967  86.3963  95.8774 0002225 101.4129 258.7319 14.37788562478593
